[{"OBJECT_NAME":"NUSAT-48 (HENRIETTA LEAVITT)","OBJECT_ID":"2024-149AG","EPOCH":"2026-03-09T19:19:17.269536","MEAN_MOTION":15.29812597,"ECCENTRICITY":0.00027538,"INCLINATION":97.3923,"RA_OF_ASC_NODE":150.8264,"ARG_OF_PERICENTER":263.3026,"MEAN_ANOMALY":96.7901,"EPHEMERIS_TYPE":0,"CLASSIFICATION_TYPE":"U","NORAD_CAT_ID":60498,"ELEMENT_SET_NO":999,"REV_AT_EPOCH":8694,"BSTAR":0.00045211745,"MEAN_MOTION_DOT":0.00012988,"MEAN_MOTION_DDOT":0},{"OBJECT_NAME":"STARLINK-35753","OBJECT_ID":"2025-244AC","EPOCH":"2026-03-09T17:57:17.277696","MEAN_MOTION":15.30242286,"ECCENTRICITY":0.00010876,"INCLINATION":53.1567,"RA_OF_ASC_NODE":229.9765,"ARG_OF_PERICENTER":145.1554,"MEAN_ANOMALY":214.9518,"EPHEMERIS_TYPE":0,"CLASSIFICATION_TYPE":"U","NORAD_CAT_ID":66232,"ELEMENT_SET_NO":999,"REV_AT_EPOCH":2166,"BSTAR":0.0010675584,"MEAN_MOTION_DOT":0.00031434,"MEAN_MOTION_DDOT":0}]
